start=new Date('2022-02-28T00:00:00.000Z').valueOf();
sats=[{"PERIAPSIS":"546.037","OBJECT_TYPE":"PAYLOAD","RA_OF_ASC_NODE":"14.3102","REF_FRAME":"TEME","TLE_LINE2":"2 47823  53.0554  14.3102 0001716  55.9005 304.2146 15.06396112 54911","NORAD_CAT_ID":"47823","MEAN_ELEMENT_THEORY":"SGP4","MEAN_MOTION_DDOT":"0.0000000000000","APOAPSIS":"548.414","OBJECT_ID":"2021-018AN","EPOCH":"2022-02-27T21:20:42.682560","BSTAR":"0.00010480000000","FILE":"3331200","DECAY_DATE":null,"INCLINATION":"53.0554","LAUNCH_DATE":"2021-03-11","ARG_OF_PERICENTER":"55.9005","MEAN_MOTION_DOT":"0.00001280","ELEMENT_SET_NO":"999","SEMIMAJOR_AXIS":"6925.360","GP_ID":"197286244","REV_AT_EPOCH":"5491","CENTER_NAME":"EARTH","ECCENTRICITY":"0.00017160","TLE_LINE1":"1 47823U 21018AN  22058.88938290  .00001280  00000-0  10480-3 0  9997","MEAN_ANOMALY":"304.2146","PERIOD":"95.592","CLASSIFICATION_TYPE":"U","COUNTRY_CODE":"US","TIME_SYSTEM":"UTC","EPHEMERIS_TYPE":"0","SITE":"AFETR","RCS_SIZE":"LARGE","MEAN_MOTION":"15.06396112","OBJECT_NAME":"STARLINK-2408"},{"MEAN_MOTION":"15.06410196","OBJECT_NAME":"STARLINK-2409","RCS_SIZE":"LARGE","SITE":"AFETR","EPHEMERIS_TYPE":"0","TIME_SYSTEM":"UTC","COUNTRY_CODE":"US","CLASSIFICATION_TYPE":"U","PERIOD":"95.591","MEAN_ANOMALY":"301.6199","TLE_LINE1":"1 47824U 21018AP  22058.87832041  .00002299  00000-0  17313-3 0  9997","ECCENTRICITY":"0.00017370","CENTER_NAME":"EARTH","REV_AT_EPOCH":"5490","SEMIMAJOR_AXIS":"6925.317","GP_ID":"197285493","ELEMENT_SET_NO":"999","MEAN_MOTION_DOT":"0.00002299","LAUNCH_DATE":"2021-03-11","ARG_OF_PERICENTER":"58.4959","INCLINATION":"53.0562","DECAY_DATE":null,"FILE":"3331200","BSTAR":"0.00017313000000","EPOCH":"2022-02-27T21:04:46.883424","OBJECT_ID":"2021-018AP","APOAPSIS":"548.385","MEAN_MOTION_DDOT":"0.0000000000000","MEAN_ELEMENT_THEORY":"SGP4","NORAD_CAT_ID":"47824","TLE_LINE2":"2 47824  53.0562  14.3528 0001737  58.4959 301.6199 15.06410196 54909","RA_OF_ASC_NODE":"14.3528","REF_FRAME":"TEME","OBJECT_TYPE":"PAYLOAD","PERIAPSIS":"545.979"},{"SITE":"AFETR","OBJECT_NAME":"STARLINK-2410","MEAN_MOTION":"15.06405839","RCS_SIZE":"LARGE","EPHEMERIS_TYPE":"0","TIME_SYSTEM":"UTC","CLASSIFICATION_TYPE":"U","COUNTRY_CODE":"US","PERIOD":"95.592","TLE_LINE1":"1 47825U 21018AQ  22058.89675640  .00004058  00000-0  29116-3 0  9999","ECCENTRICITY":"0.00019120","CENTER_NAME":"EARTH","MEAN_ANOMALY":"298.8133","REV_AT_EPOCH":"5491","SEMIMAJOR_AXIS":"6925.331","GP_ID":"197285743","ELEMENT_SET_NO":"999","MEAN_MOTION_DOT":"0.00004058","LAUNCH_DATE":"2021-03-11","ARG_OF_PERICENTER":"61.3048","FILE":"3331200","INCLINATION":"53.0569","DECAY_DATE":null,"OBJECT_ID":"2021-018AQ","EPOCH":"2022-02-27T21:31:19.752960","BSTAR":"0.00029116000000","MEAN_MOTION_DDOT":"0.0000000000000","APOAPSIS":"548.520","NORAD_CAT_ID":"47825","MEAN_ELEMENT_THEORY":"SGP4","RA_OF_ASC_NODE":"14.2693","REF_FRAME":"TEME","TLE_LINE2":"2 47825  53.0569  14.2693 0001912  61.3048 298.8133 15.06405839 54910","PERIAPSIS":"545.872","OBJECT_TYPE":"PAYLOAD"},{"MEAN_MOTION_DDOT":"0.0000000000000","APOAPSIS":"548.995","OBJECT_ID":"2021-018AR","EPOCH":"2022-02-27T21:26:01.277376","BSTAR":"-0.00026225000000","FILE":"3331200","INCLINATION":"53.0546","DECAY_DATE":null,"MEAN_MOTION_DOT":"-0.00004187","LAUNCH_DATE":"2021-03-11","ARG_OF_PERICENTER":"58.4203","PERIAPSIS":"545.400","OBJECT_TYPE":"PAYLOAD","REF_FRAME":"TEME","RA_OF_ASC_NODE":"14.2937","TLE_LINE2":"2 47826  53.0546  14.2937 0002596  58.4203 301.7039 15.06405263 54916","NORAD_CAT_ID":"47826","MEAN_ELEMENT_THEORY":"SGP4","CLASSIFICATION_TYPE":"U","COUNTRY_CODE":"US","TIME_SYSTEM":"UTC","EPHEMERIS_TYPE":"0","SITE":"AFETR","MEAN_MOTION":"15.06405263","OBJECT_NAME":"STARLINK-2411","RCS_SIZE":"LARGE","ELEMENT_SET_NO":"999","REV_AT_EPOCH":"5491","SEMIMAJOR_AXIS":"6925.332","GP_ID":"197285994","TLE_LINE1":"1 47826U 21018AR  22058.89307034 -.00004187  00000-0 -26225-3 0  9992","ECCENTRICITY":"0.00025960","CENTER_NAME":"EARTH","MEAN_ANOMALY":"301.7039","PERIOD":"95.592"},{"PERIAPSIS":"545.897","OBJECT_TYPE":"PAYLOAD","NORAD_CAT_ID":"47827","MEAN_ELEMENT_THEORY":"SGP4","REF_FRAME":"TEME","RA_OF_ASC_NODE":"4.4772","TLE_LINE2":"2 47827  53.0568   4.4772 0001912  60.1548 299.9631 15.06397466 55105","EPOCH":"2022-02-27T20:27:36.608256","OBJECT_ID":"2021-018AS","BSTAR":"0.00000214380000","MEAN_MOTION_DDOT":"0.0000000000000","APOAPSIS":"548.545","MEAN_MOTION_DOT":"-0.00000250","ARG_OF_PERICENTER":"60.1548","LAUNCH_DATE":"2021-03-11","FILE":"3331200","INCLINATION":"53.0568","DECAY_DATE":null,"REV_AT_EPOCH":"5510","SEMIMAJOR_AXIS":"6925.356","GP_ID":"197286745","ELEMENT_SET_NO":"999","PERIOD":"95.592","TLE_LINE1":"1 47827U 21018AS  22058.85250704 -.00000250  00000-0  21438-5 0  9999","CENTER_NAME":"EARTH","ECCENTRICITY":"0.00019120","MEAN_ANOMALY":"299.9631","TIME_SYSTEM":"UTC","CLASSIFICATION_TYPE":"U","COUNTRY_CODE":"US","SITE":"AFETR","MEAN_MOTION":"15.06397466","OBJECT_NAME":"STARLINK-2413","RCS_SIZE":"LARGE","EPHEMERIS_TYPE":"0"},{"COUNTRY_CODE":"US","CLASSIFICATION_TYPE":"U","TIME_SYSTEM":"UTC","EPHEMERIS_TYPE":"0","OBJECT_NAME":"STARLINK-2415","MEAN_MOTION":"15.06398759","RCS_SIZE":"LARGE","SITE":"AFETR","ELEMENT_SET_NO":"999","REV_AT_EPOCH":"5473","GP_ID":"197284993","SEMIMAJOR_AXIS":"6925.352","MEAN_ANOMALY":"312.2405","TLE_LINE1":"1 47828U 21018AT  22058.61201890 -.00000196  00000-0  57292-5 0  9992","ECCENTRICITY":"0.00019390","CENTER_NAME":"EARTH","PERIOD":"95.592","APOAPSIS":"548.560","MEAN_MOTION_DDOT":"0.0000000000000","BSTAR":"0.00000572920000","OBJECT_ID":"2021-018AT","EPOCH":"2022-02-27T14:41:18.432960","INCLINATION":"53.0553","DECAY_DATE":null,"FILE":"3331200","MEAN_MOTION_DOT":"-0.00000196","LAUNCH_DATE":"2021-03-11","ARG_OF_PERICENTER":"47.8749","OBJECT_TYPE":"PAYLOAD","PERIAPSIS":"545.875","TLE_LINE2":"2 47828  53.0553  25.5542 0001939  47.8749 312.2405 15.06398759 54735","RA_OF_ASC_NODE":"25.5542","REF_FRAME":"TEME","MEAN_ELEMENT_THEORY":"SGP4","NORAD_CAT_ID":"47828"},{"MEAN_ANOMALY":"306.4101","TLE_LINE1":"1 47829U 21018AU  22058.89583822 -.00002235  00000-0 -13117-3 0  9994","CENTER_NAME":"EARTH","ECCENTRICITY":"0.00017760","PERIOD":"95.592","ELEMENT_SET_NO":"999","REV_AT_EPOCH":"5476","SEMIMAJOR_AXIS":"6925.345","GP_ID":"197285243","EPHEMERIS_TYPE":"0","OBJECT_NAME":"STARLINK-2416","MEAN_MOTION":"15.06401141","RCS_SIZE":"LARGE","SITE":"AFETR","COUNTRY_CODE":"US","CLASSIFICATION_TYPE":"U","TIME_SYSTEM":"UTC","TLE_LINE2":"2 47829  53.0549  24.2811 0001776  53.7052 306.4101 15.06401141 54769","REF_FRAME":"TEME","RA_OF_ASC_NODE":"24.2811","MEAN_ELEMENT_THEORY":"SGP4","NORAD_CAT_ID":"47829","OBJECT_TYPE":"PAYLOAD","PERIAPSIS":"545.980","INCLINATION":"53.0549","DECAY_DATE":null,"FILE":"3331200","MEAN_MOTION_DOT":"-0.00002235","ARG_OF_PERICENTER":"53.7052","LAUNCH_DATE":"2021-03-11","APOAPSIS":"548.440","MEAN_MOTION_DDOT":"0.0000000000000","BSTAR":"-0.00013117000000","EPOCH":"2022-02-27T21:30:00.422208","OBJECT_ID":"2021-018AU"},{"TLE_LINE2":"2 47830  53.0559  24.2918 0001839  60.4753 299.6419 15.06396127 54765","REF_FRAME":"TEME","RA_OF_ASC_NODE":"24.2918","MEAN_ELEMENT_THEORY":"SGP4","NORAD_CAT_ID":"47830","OBJECT_TYPE":"PAYLOAD","PERIAPSIS":"545.952","DECAY_DATE":null,"INCLINATION":"53.0559","FILE":"3331200","LAUNCH_DATE":"2021-03-11","ARG_OF_PERICENTER":"60.4753","MEAN_MOTION_DOT":"0.00001598","APOAPSIS":"548.499","MEAN_MOTION_DDOT":"0.0000000000000","BSTAR":"0.00012620000000","EPOCH":"2022-02-27T21:24:41.686560","OBJECT_ID":"2021-018AV","MEAN_ANOMALY":"299.6419","CENTER_NAME":"EARTH","ECCENTRICITY":"0.00018390","TLE_LINE1":"1 47830U 21018AV  22058.89214915  .00001598  00000-0  12620-3 0  9997","PERIOD":"95.592","ELEMENT_SET_NO":"999","SEMIMAJOR_AXIS":"6925.360","GP_ID":"197286495","REV_AT_EPOCH":"5476","EPHEMERIS_TYPE":"0","RCS_SIZE":"LARGE","OBJECT_NAME":"STARLINK-2419","MEAN_MOTION":"15.06396127","SITE":"AFETR","COUNTRY_CODE":"US","CLASSIFICATION_TYPE":"U","TIME_SYSTEM":"UTC"},{"MEAN_ELEMENT_THEORY":"SGP4","NORAD_CAT_ID":"47831","TLE_LINE2":"2 47831  53.0635 359.5489 0001807  59.5507 300.5660 15.06396643 55167","RA_OF_ASC_NODE":"359.5489","REF_FRAME":"TEME","OBJECT_TYPE":"PAYLOAD","PERIAPSIS":"545.972","MEAN_MOTION_DOT":"0.00000840","LAUNCH_DATE":"2021-03-11","ARG_OF_PERICENTER":"59.5507","INCLINATION":"53.0635","DECAY_DATE":null,"FILE":"3331200","BSTAR":"0.00007528200000","OBJECT_ID":"2021-018AW","EPOCH":"2022-02-27T19:49:49.333152","APOAPSIS":"548.475","MEAN_MOTION_DDOT":"0.0000000000000","PERIOD":"95.592","MEAN_ANOMALY":"300.5660","TLE_LINE1":"1 47831U 21018AW  22058.82626543  .00000840  00000-0  75282-4 0  9998","CENTER_NAME":"EARTH","ECCENTRICITY":"0.00018070","REV_AT_EPOCH":"5516","SEMIMAJOR_AXIS":"6925.359","GP_ID":"197286245","ELEMENT_SET_NO":"999","MEAN_MOTION":"15.06396643","OBJECT_NAME":"STARLINK-2420","RCS_SIZE":"LARGE","SITE":"AFETR","EPHEMERIS_TYPE":"0","TIME_SYSTEM":"UTC","COUNTRY_CODE":"US","CLASSIFICATION_TYPE":"U"},{"PERIAPSIS":"546.013","OBJECT_TYPE":"PAYLOAD","NORAD_CAT_ID":"47832","MEAN_ELEMENT_THEORY":"SGP4","REF_FRAME":"TEME","RA_OF_ASC_NODE":"15.6832","TLE_LINE2":"2 47832  53.0540  15.6832 0001778  60.5689 299.5477 15.06389861 54868","EPOCH":"2022-02-27T14:00:10.134432","OBJECT_ID":"2021-018AX","BSTAR":"0.00030342000000","MEAN_MOTION_DDOT":"0.0000000000000","APOAPSIS":"548.476","MEAN_MOTION_DOT":"0.00004239","ARG_OF_PERICENTER":"60.5689","LAUNCH_DATE":"2021-03-11","FILE":"3331200","INCLINATION":"53.0540","DECAY_DATE":null,"REV_AT_EPOCH":"5486","SEMIMAJOR_AXIS":"6925.380","GP_ID":"197285494","ELEMENT_SET_NO":"999","PERIOD":"95.593","TLE_LINE1":"1 47832U 21018AX  22058.58345063  .00004239  00000-0  30342-3 0  9990","CENTER_NAME":"EARTH","ECCENTRICITY":"0.00017780","MEAN_ANOMALY":"299.5477","TIME_SYSTEM":"UTC","CLASSIFICATION_TYPE":"U","COUNTRY_CODE":"US","SITE":"AFETR","MEAN_MOTION":"15.06389861","OBJECT_NAME":"STARLINK-2422","RCS_SIZE":"LARGE","EPHEMERIS_TYPE":"0"}];
